{"type": "FeatureCollection", "features": [ {"type": "Feature", "properties": {"norad_id": 33153, "name": "INTELSAT 25 (IS-25)", "group": "intelsat", "lat": 1.4731810638763925, "lon": 123.71685548993898, "alt_km": 35804.92734619159, "timestamp": "2025-12-11T05:00:25.978701+00:00", "meta": {"OBJECT_NAME": "INTELSAT 25 (IS-25)", "OBJECT_ID": "2008-034A", "EPOCH": "2025-12-10T20:14:30.076224", "MEAN_MOTION": 1.00270136, "ECCENTRICITY": 0.00053477, "INCLINATION": 2.2231, "RA_OF_ASC_NODE": 82.6691, "ARG_OF_PERICENTER": 186.1834, "MEAN_ANOMALY": 83.082, "EPHEMERIS_TYPE": 0, "CLASSIFICATION_TYPE": "U", "NORAD_CAT_ID": 33153, "ELEMENT_SET_NO": 999, "REV_AT_EPOCH": 6380, "BSTAR": 0, "MEAN_MOTION_DOT": -2.19e-06, "MEAN_MOTION_DDOT": 0}, "tle": {"line1": "1 33153U 08034A   25344.84340366 -.00000219  00000+0  00000+0 0  9993", "line2": "2 33153   2.2231  82.6691 0005347 186.1834  83.0820  1.00270136 63807"}}, "geometry": {"type": "Point", "coordinates": [123.71685548993898, 1.4731810638763925]}}, {"type": "Feature", "properties": {"norad_id": 33376, "name": "GALAXY 19 (G-19)", "group": "intelsat", "lat": 0.03459009008090993, "lon": 58.28860601857203, "alt_km": 35797.45581702461, "timestamp": "2025-12-11T05:00:25.978713+00:00", "meta": {"OBJECT_NAME": "GALAXY 19 (G-19)", "OBJECT_ID": "2008-045A", "EPOCH": "2025-12-10T19:55:46.870176", "MEAN_MOTION": 1.002697, "ECCENTRICITY": 0.00027301, "INCLINATION": 0.0169, "RA_OF_ASC_NODE": 341.0168, "ARG_OF_PERICENTER": 278.3964, "MEAN_ANOMALY": 22.335, "EPHEMERIS_TYPE": 0, "CLASSIFICATION_TYPE": "U", "NORAD_CAT_ID": 33376, "ELEMENT_SET_NO": 999, "REV_AT_EPOCH": 6301, "BSTAR": 0, "MEAN_MOTION_DOT": 0, "MEAN_MOTION_DDOT": 0}, "tle": {"line1": "1 33376U 08045A   25344.83040359  .00000000  00000+0  00000+0 0  9997", "line2": "2 33376   0.0169 341.0168 0002730 278.3964  22.3350  1.00269700 63014"}}, "geometry": {"type": "Point", "coordinates": [58.28860601857203, 0.03459009008090993]}}, {"type": "Feature", "properties": {"norad_id": 35493, "name": "FM-5", "group": "intelsat", "lat": 0.024802394681433887, "lon": 69.1264017891514, "alt_km": 35786.99859903461, "timestamp": "2025-12-11T05:00:25.978724+00:00", "meta": {"OBJECT_NAME": "FM-5", "OBJECT_ID": "2009-034A", "EPOCH": "2025-12-10T14:50:41.125920", "MEAN_MOTION": 1.00270648, "ECCENTRICITY": 5.746e-05, "INCLINATION": 0.017, "RA_OF_ASC_NODE": 291.5558, "ARG_OF_PERICENTER": 240.9875, "MEAN_ANOMALY": 43.5772, "EPHEMERIS_TYPE": 0, "CLASSIFICATION_TYPE": "U", "NORAD_CAT_ID": 35493, "ELEMENT_SET_NO": 999, "REV_AT_EPOCH": 4475, "BSTAR": 0, "MEAN_MOTION_DOT": -1.96e-06, "MEAN_MOTION_DDOT": 0}, "tle": {"line1": "1 35493U 09034A   25344.61853155 -.00000196  00000+0  00000+0 0  9997", "line2": "2 35493   0.0170 291.5558 0000574 240.9875  43.5772  1.00270648 44756"}}, "geometry": {"type": "Point", "coordinates": [69.1264017891514, 0.024802394681433887]}}, {"type": "Feature", "properties": {"norad_id": 36097, "name": "INTELSAT 14 (IS-14)", "group": "intelsat", "lat": 0.023152402168635598, "lon": 110.26383087584469, "alt_km": 35796.880874155075, "timestamp": "2025-12-11T05:00:25.978736+00:00", "meta": {"OBJECT_NAME": "INTELSAT 14 (IS-14)", "OBJECT_ID": "2009-064A", "EPOCH": "2025-12-10T20:10:37.947072", "MEAN_MOTION": 1.00270064, "ECCENTRICITY": 0.00026216, "INCLINATION": 0.0094, "RA_OF_ASC_NODE": 15.2925, "ARG_OF_PERICENTER": 252.9462, "MEAN_ANOMALY": 69.2298, "EPHEMERIS_TYPE": 0, "CLASSIFICATION_TYPE": "U", "NORAD_CAT_ID": 36097, "ELEMENT_SET_NO": 999, "REV_AT_EPOCH": 5871, "BSTAR": 0, "MEAN_MOTION_DOT": -2.69e-06, "MEAN_MOTION_DDOT": 0}, "tle": {"line1": "1 36097U 09064A   25344.84071698 -.00000269  00000+0  00000+0 0  9991", "line2": "2 36097   0.0094  15.2925 0002621 252.9462  69.2298  1.00270064 58712"}}, "geometry": {"type": "Point", "coordinates": [110.26383087584469, 0.023152402168635598]}}, {"type": "Feature", "properties": {"norad_id": 36106, "name": "INTELSAT 15 (IS-15)", "group": "intelsat", "lat": -0.03266001552831682, "lon": -119.59033053321409, "alt_km": 35777.41128893259, "timestamp": "2025-12-11T05:00:25.978748+00:00", "meta": {"OBJECT_NAME": "INTELSAT 15 (IS-15)", "OBJECT_ID": "2009-067A", "EPOCH": "2025-12-10T21:22:40.311840", "MEAN_MOTION": 1.00270826, "ECCENTRICITY": 0.00023886, "INCLINATION": 0.0246, "RA_OF_ASC_NODE": 289.0352, "ARG_OF_PERICENTER": 338.9577, "MEAN_ANOMALY": 217.6808, "EPHEMERIS_TYPE": 0, "CLASSIFICATION_TYPE": "U", "NORAD_CAT_ID": 36106, "ELEMENT_SET_NO": 999, "REV_AT_EPOCH": 3934, "BSTAR": 0, "MEAN_MOTION_DOT": -1.8e-06, "MEAN_MOTION_DDOT": 0}, "tle": {"line1": "1 36106U 09067A   25344.89074435 -.00000180  00000+0  00000+0 0  9994", "line2": "2 36106   0.0246 289.0352 0002388 338.9577 217.6808  1.00270826 39349"}}, "geometry": {"type": "Point", "coordinates": [-119.59033053321409, -0.03266001552831682]}}, {"type": "Feature", "properties": {"norad_id": 36131, "name": "DIRECTV 12", "group": "intelsat", "lat": -0.01682409379850319, "lon": 52.55803193787395, "alt_km": 35786.17483453461, "timestamp": "2025-12-11T05:00:25.978759+00:00", "meta": {"OBJECT_NAME": "DIRECTV 12", "OBJECT_ID": "2009-075A", "EPOCH": "2025-12-10T19:53:54.549312", "MEAN_MOTION": 1.0026974, "ECCENTRICITY": 3.207e-05, "INCLINATION": 0.0398, "RA_OF_ASC_NODE": 148.5346, "ARG_OF_PERICENTER": 195.3833, "MEAN_ANOMALY": 291.6382, "EPHEMERIS_TYPE": 0, "CLASSIFICATION_TYPE": "U", "NORAD_CAT_ID": 36131, "ELEMENT_SET_NO": 999, "REV_AT_EPOCH": 4466, "BSTAR": 0, "MEAN_MOTION_DOT": -9.8e-07, "MEAN_MOTION_DDOT": 0}, "tle": {"line1": "1 36131U 09075A   25344.82910358 -.00000098  00000+0  00000+0 0  9995", "line2": "2 36131   0.0398 148.5346 0000320 195.3833 291.6382  1.00269740 44664"}}, "geometry": {"type": "Point", "coordinates": [52.55803193787395, -0.01682409379850319]}}, {"type": "Feature", "properties": {"norad_id": 36397, "name": "INTELSAT 16 (IS-16)", "group": "intelsat", "lat": 0.026385939985729988, "lon": 79.07939964389985, "alt_km": 35795.161472504544, "timestamp": "2025-12-11T05:00:25.978771+00:00", "meta": {"OBJECT_NAME": "INTELSAT 16 (IS-16)", "OBJECT_ID": "2010-006A", "EPOCH": "2025-12-10T20:01:38.807616", "MEAN_MOTION": 1.00272427, "ECCENTRICITY": 0.00021803, "INCLINATION": 0.0117, "RA_OF_ASC_NODE": 318.0575, "ARG_OF_PERICENTER": 302.077, "MEAN_ANOMALY": 43.8821, "EPHEMERIS_TYPE": 0, "CLASSIFICATION_TYPE": "U", "NORAD_CAT_ID": 36397, "ELEMENT_SET_NO": 999, "REV_AT_EPOCH": 5776, "BSTAR": 0, "MEAN_MOTION_DOT": -2.4e-06, "MEAN_MOTION_DDOT": 0}, "tle": {"line1": "1 36397U 10006A   25344.83447694 -.00000240  00000+0  00000+0 0  9993", "line2": "2 36397   0.0117 318.0575 0002180 302.0770  43.8821  1.00272427 57764"}}, "geometry": {"type": "Point", "coordinates": [79.07939964389985, 0.026385939985729988]}}, {"type": "Feature", "properties": {"norad_id": 37185, "name": "XM-5", "group": "intelsat", "lat": 0.0609103087823161, "lon": 40.055401961306025, "alt_km": 35788.82703599586, "timestamp": "2025-12-11T05:00:25.978782+00:00", "meta": {"OBJECT_NAME": "XM-5", "OBJECT_ID": "2010-053A", "EPOCH": "2025-12-10T16:25:03.748224", "MEAN_MOTION": 1.00269453, "ECCENTRICITY": 0.00015102, "INCLINATION": 0.0605, "RA_OF_ASC_NODE": 272.7842, "ARG_OF_PERICENTER": 236.8778, "MEAN_ANOMALY": 61.0581, "EPHEMERIS_TYPE": 0, "CLASSIFICATION_TYPE": "U", "NORAD_CAT_ID": 37185, "ELEMENT_SET_NO": 999, "REV_AT_EPOCH": 5559, "BSTAR": 0, "MEAN_MOTION_DOT": -1.8e-07, "MEAN_MOTION_DDOT": 0}, "tle": {"line1": "1 37185U 10053A   25344.68407116 -.00000018  00000+0  00000+0 0  9992", "line2": "2 37185   0.0605 272.7842 0001510 236.8778  61.0581  1.00269453 55592"}}, "geometry": {"type": "Point", "coordinates": [40.055401961306025, 0.0609103087823161]}}, {"type": "Feature", "properties": {"norad_id": 37238, "name": "INTELSAT 17 (IS-17)", "group": "intelsat", "lat": -0.024155780818397497, "lon": -138.72678091289947, "alt_km": 35777.89629903948, "timestamp": "2025-12-11T05:00:25.978794+00:00", "meta": {"OBJECT_NAME": "INTELSAT 17 (IS-17)", "OBJECT_ID": "2010-065B", "EPOCH": "2025-12-10T21:03:22.035168", "MEAN_MOTION": 1.00271659, "ECCENTRICITY": 0.0002473, "INCLINATION": 0.0119, "RA_OF_ASC_NODE": 292.6881, "ARG_OF_PERICENTER": 326.9359, "MEAN_ANOMALY": 202.0778, "EPHEMERIS_TYPE": 0, "CLASSIFICATION_TYPE": "U", "NORAD_CAT_ID": 37238, "ELEMENT_SET_NO": 999, "REV_AT_EPOCH": 5136, "BSTAR": 0, "MEAN_MOTION_DOT": 3e-08, "MEAN_MOTION_DDOT": 0}, "tle": {"line1": "1 37238U 10065B   25344.87733837  .00000003  00000+0  00000+0 0  9990", "line2": "2 37238   0.0119 292.6881 0002473 326.9359 202.0778  1.00271659 51367"}}, "geometry": {"type": "Point", "coordinates": [-138.72678091289947, -0.024155780818397497]}}, {"type": "Feature", "properties": {"norad_id": 37392, "name": "INTELSAT 28 (IS-28)", "group": "intelsat", "lat": 0.8334911794126406, "lon": 123.54615350175324, "alt_km": 35798.84651065096, "timestamp": "2025-12-11T05:00:25.978805+00:00", "meta": {"OBJECT_NAME": "INTELSAT 28 (IS-28)", "OBJECT_ID": "2011-016A", "EPOCH": "2025-12-10T20:14:22.587936", "MEAN_MOTION": 1.00272064, "ECCENTRICITY": 0.00039178, "INCLINATION": 1.32, "RA_OF_ASC_NODE": 85.0809, "ARG_OF_PERICENTER": 179.7187, "MEAN_ANOMALY": 86.9102, "EPHEMERIS_TYPE": 0, "CLASSIFICATION_TYPE": "U", "NORAD_CAT_ID": 37392, "ELEMENT_SET_NO": 999, "REV_AT_EPOCH": 5139, "BSTAR": 0, "MEAN_MOTION_DOT": -2.2e-06, "MEAN_MOTION_DDOT": 0}, "tle": {"line1": "1 37392U 11016A   25344.84331699 -.00000220  00000+0  00000+0 0  9997", "line2": "2 37392   1.3200  85.0809 0003917 179.7187  86.9102  1.00272064 51398"}}, "geometry": {"type": "Point", "coordinates": [123.54615350175324, 0.8334911794126406]}}]}